STARLINK-32003          
1 60097U 24117G   26068.20231302  .00000133  00000+0  16603-4 0  9998
2 60097  53.1616  39.2575 0001073  72.3058 287.8060 15.30193830 96811
AL MUNTHER              
1 63240U 25052AG  26068.64540749  .00017933  00000+0  65015-3 0  9992
2 63240  97.4001 323.9152 0008027 130.7043 229.4895 15.28381521 54798
